[{"OBJECT_NAME":"STARLINK-3779","OBJECT_ID":"2022-041W","EPOCH":"2026-03-09T19:19:02.122752","MEAN_MOTION":15.08836079,"ECCENTRICITY":0.00012936,"INCLINATION":53.2167,"RA_OF_ASC_NODE":108.602,"ARG_OF_PERICENTER":86.7137,"MEAN_ANOMALY":273.4003,"EPHEMERIS_TYPE":0,"CLASSIFICATION_TYPE":"U","NORAD_CAT_ID":52281,"ELEMENT_SET_NO":999,"REV_AT_EPOCH":21438,"BSTAR":5.875822e-6,"MEAN_MOTION_DOT":-1.94e-6,"MEAN_MOTION_DDOT":0},{"OBJECT_NAME":"CZ-6A DEB","OBJECT_ID":"2024-140KN","EPOCH":"2026-03-09T13:37:52.587264","MEAN_MOTION":14.78327521,"ECCENTRICITY":0.01349,"INCLINATION":88.7947,"RA_OF_ASC_NODE":265.1899,"ARG_OF_PERICENTER":188.1767,"MEAN_ANOMALY":171.726,"EPHEMERIS_TYPE":0,"CLASSIFICATION_TYPE":"U","NORAD_CAT_ID":60883,"ELEMENT_SET_NO":999,"REV_AT_EPOCH":8325,"BSTAR":0.00065033,"MEAN_MOTION_DOT":5.532e-5,"MEAN_MOTION_DDOT":0}]
